[{"OBJECT_NAME":"COSMOS 2251 DEB","OBJECT_ID":"1993-036AXX","EPOCH":"2026-03-03T09:21:44.727264","MEAN_MOTION":14.42212841,"ECCENTRICITY":0.00146997,"INCLINATION":74.0272,"RA_OF_ASC_NODE":84.9788,"ARG_OF_PERICENTER":174.6913,"MEAN_ANOMALY":185.4402,"EPHEMERIS_TYPE":0,"CLASSIFICATION_TYPE":"U","NORAD_CAT_ID":36060,"ELEMENT_SET_NO":999,"REV_AT_EPOCH":86172,"BSTAR":0.000356248,"MEAN_MOTION_DOT":1.149e-5,"MEAN_MOTION_DDOT":0},{"OBJECT_NAME":"COSMOS 2251 DEB","OBJECT_ID":"1993-036AXY","EPOCH":"2026-03-05T01:52:29.871264","MEAN_MOTION":14.33874557,"ECCENTRICITY":0.00394287,"INCLINATION":74.0233,"RA_OF_ASC_NODE":209.0269,"ARG_OF_PERICENTER":277.7047,"MEAN_ANOMALY":81.9628,"EPHEMERIS_TYPE":0,"CLASSIFICATION_TYPE":"U","NORAD_CAT_ID":36061,"ELEMENT_SET_NO":999,"REV_AT_EPOCH":66284,"BSTAR":0.00039654763,"MEAN_MOTION_DOT":1.088e-5,"MEAN_MOTION_DDOT":0},{"OBJECT_NAME":"COSMOS 2251 DEB","OBJECT_ID":"1993-036AYL","EPOCH":"2026-03-06T12:33:19.868832","MEAN_MOTION":14.35079196,"ECCENTRICITY":0.00249307,"INCLINATION":74.0341,"RA_OF_ASC_NODE":168.9602,"ARG_OF_PERICENTER":222.4578,"MEAN_ANOMALY":137.4647,"EPHEMERIS_TYPE":0,"CLASSIFICATION_TYPE":"U","NORAD_CAT_ID":36073,"ELEMENT_SET_NO":999,"REV_AT_EPOCH":71409,"BSTAR":0.000320401,"MEAN_MOTION_DOT":8.91e-6,"MEAN_MOTION_DDOT":0},{"OBJECT_NAME":"COSMOS 2251 DEB","OBJECT_ID":"1993-036AYM","EPOCH":"2026-03-06T07:34:21.271872","MEAN_MOTION":14.4447178,"ECCENTRICITY":0.00450001,"INCLINATION":73.9927,"RA_OF_ASC_NODE":184.5991,"ARG_OF_PERICENTER":259.5687,"MEAN_ANOMALY":100.0398,"EPHEMERIS_TYPE":0,"CLASSIFICATION_TYPE":"U","NORAD_CAT_ID":36074,"ELEMENT_SET_NO":999,"REV_AT_EPOCH":87116,"BSTAR":0.0014411295,"MEAN_MOTION_DOT":5.012e-5,"MEAN_MOTION_DDOT":0},{"OBJECT_NAME":"COSMOS 2251 DEB","OBJECT_ID":"1993-036AYT","EPOCH":"2026-03-05T12:44:46.583808","MEAN_MOTION":14.34320253,"ECCENTRICITY":0.0084785,"INCLINATION":74.0639,"RA_OF_ASC_NODE":121.8582,"ARG_OF_PERICENTER":132.0739,"MEAN_ANOMALY":228.7666,"EPHEMERIS_TYPE":0,"CLASSIFICATION_TYPE":"U","NORAD_CAT_ID":36366,"ELEMENT_SET_NO":999,"REV_AT_EPOCH":87475,"BSTAR":0.0015124,"MEAN_MOTION_DOT":4.402e-5,"MEAN_MOTION_DDOT":0},{"OBJECT_NAME":"COSMOS 2251 DEB","OBJECT_ID":"1993-036AYU","EPOCH":"2026-02-09T22:36:16.665120","MEAN_MOTION":13.8665694,"ECCENTRICITY":0.0260465,"INCLINATION":74.1017,"RA_OF_ASC_NODE":131.5377,"ARG_OF_PERICENTER":191.0318,"MEAN_ANOMALY":168.5033,"EPHEMERIS_TYPE":0,"CLASSIFICATION_TYPE":"U","NORAD_CAT_ID":36367,"ELEMENT_SET_NO":999,"REV_AT_EPOCH":58350,"BSTAR":0.00099798,"MEAN_MOTION_DOT":1.494e-5,"MEAN_MOTION_DDOT":0},{"OBJECT_NAME":"COSMOS 2251 DEB","OBJECT_ID":"1993-036AYW","EPOCH":"2026-03-04T20:05:54.697632","MEAN_MOTION":14.75602519,"ECCENTRICITY":0.00114294,"INCLINATION":74.0282,"RA_OF_ASC_NODE":270.3454,"ARG_OF_PERICENTER":325.6872,"MEAN_ANOMALY":34.3563,"EPHEMERIS_TYPE":0,"CLASSIFICATION_TYPE":"U","NORAD_CAT_ID":36369,"ELEMENT_SET_NO":999,"REV_AT_EPOCH":87132,"BSTAR":0.0018310016,"MEAN_MOTION_DOT":0.00012496,"MEAN_MOTION_DDOT":0},{"OBJECT_NAME":"COSMOS 2251 DEB","OBJECT_ID":"1993-036AYY","EPOCH":"2026-02-26T13:22:53.724864","MEAN_MOTION":14.72714315,"ECCENTRICITY":0.0006486,"INCLINATION":74.0146,"RA_OF_ASC_NODE":13.9369,"ARG_OF_PERICENTER":17.5795,"MEAN_ANOMALY":342.56,"EPHEMERIS_TYPE":0,"CLASSIFICATION_TYPE":"U","NORAD_CAT_ID":36371,"ELEMENT_SET_NO":999,"REV_AT_EPOCH":72560,"BSTAR":0.0022282,"MEAN_MOTION_DOT":0.00014222,"MEAN_MOTION_DDOT":0},{"OBJECT_NAME":"COSMOS 2251 DEB","OBJECT_ID":"1993-036AZG","EPOCH":"2026-03-06T12:46:53.087232","MEAN_MOTION":14.36241051,"ECCENTRICITY":0.00477676,"INCLINATION":74.0127,"RA_OF_ASC_NODE":152.7335,"ARG_OF_PERICENTER":262.5892,"MEAN_ANOMALY":112.839,"EPHEMERIS_TYPE":0,"CLASSIFICATION_TYPE":"U","NORAD_CAT_ID":36379,"ELEMENT_SET_NO":999,"REV_AT_EPOCH":66031,"BSTAR":0.00034064685,"MEAN_MOTION_DOT":9.81e-6,"MEAN_MOTION_DDOT":0},{"OBJECT_NAME":"COSMOS 2251 DEB","OBJECT_ID":"1993-036AZN","EPOCH":"2026-03-06T05:42:24.445152","MEAN_MOTION":14.74767842,"ECCENTRICITY":0.01365449,"INCLINATION":73.9718,"RA_OF_ASC_NODE":350.9682,"ARG_OF_PERICENTER":146.5767,"MEAN_ANOMALY":214.4121,"EPHEMERIS_TYPE":0,"CLASSIFICATION_TYPE":"U","NORAD_CAT_ID":36385,"ELEMENT_SET_NO":999,"REV_AT_EPOCH":86332,"BSTAR":0.0013554041,"MEAN_MOTION_DOT":0.00010529,"MEAN_MOTION_DDOT":0},{"OBJECT_NAME":"COSMOS 2251 DEB","OBJECT_ID":"1993-036AZT","EPOCH":"2026-03-06T12:29:08.254752","MEAN_MOTION":14.36990316,"ECCENTRICITY":0.00186771,"INCLINATION":74.0365,"RA_OF_ASC_NODE":121.4601,"ARG_OF_PERICENTER":197.2746,"MEAN_ANOMALY":229.5136,"EPHEMERIS_TYPE":0,"CLASSIFICATION_TYPE":"U","NORAD_CAT_ID":36420,"ELEMENT_SET_NO":999,"REV_AT_EPOCH":86240,"BSTAR":0.00016770355,"MEAN_MOTION_DOT":4.72e-6,"MEAN_MOTION_DDOT":0},{"OBJECT_NAME":"COSMOS 2251 DEB","OBJECT_ID":"1993-036BAD","EPOCH":"2026-02-12T13:05:19.375296","MEAN_MOTION":14.27947772,"ECCENTRICITY":0.0095242,"INCLINATION":74.0059,"RA_OF_ASC_NODE":356.3216,"ARG_OF_PERICENTER":132.6405,"MEAN_ANOMALY":228.2823,"EPHEMERIS_TYPE":0,"CLASSIFICATION_TYPE":"U","NORAD_CAT_ID":36430,"ELEMENT_SET_NO":999,"REV_AT_EPOCH":65439,"BSTAR":0.00034418,"MEAN_MOTION_DOT":8.7e-6,"MEAN_MOTION_DDOT":0},{"OBJECT_NAME":"COSMOS 2251 DEB","OBJECT_ID":"1993-036BAL","EPOCH":"2026-03-04T17:38:40.616448","MEAN_MOTION":14.72491053,"ECCENTRICITY":0.00206088,"INCLINATION":73.939,"RA_OF_ASC_NODE":233.6946,"ARG_OF_PERICENTER":80.4154,"MEAN_ANOMALY":279.9345,"EPHEMERIS_TYPE":0,"CLASSIFICATION_TYPE":"U","NORAD_CAT_ID":36437,"ELEMENT_SET_NO":999,"REV_AT_EPOCH":67257,"BSTAR":0.0024018653,"MEAN_MOTION_DOT":0.00015302,"MEAN_MOTION_DDOT":0},{"OBJECT_NAME":"COSMOS 2251 DEB","OBJECT_ID":"1993-036BAN","EPOCH":"2026-03-02T07:40:43.842432","MEAN_MOTION":13.4809569,"ECCENTRICITY":0.04260445,"INCLINATION":73.9671,"RA_OF_ASC_NODE":269.6643,"ARG_OF_PERICENTER":226.2068,"MEAN_ANOMALY":130.3061,"EPHEMERIS_TYPE":0,"CLASSIFICATION_TYPE":"U","NORAD_CAT_ID":36439,"ELEMENT_SET_NO":999,"REV_AT_EPOCH":59685,"BSTAR":0.00087756968,"MEAN_MOTION_DOT":9.23e-6,"MEAN_MOTION_DDOT":0},{"OBJECT_NAME":"COSMOS 2251 DEB","OBJECT_ID":"1993-036BAQ","EPOCH":"2026-03-02T18:09:22.308480","MEAN_MOTION":15.08453793,"ECCENTRICITY":0.0108476,"INCLINATION":73.8355,"RA_OF_ASC_NODE":183.1226,"ARG_OF_PERICENTER":266.0547,"MEAN_ANOMALY":92.8237,"EPHEMERIS_TYPE":0,"CLASSIFICATION_TYPE":"U","NORAD_CAT_ID":36441,"ELEMENT_SET_NO":999,"REV_AT_EPOCH":88171,"BSTAR":0.00067126775,"MEAN_MOTION_DOT":0.00011967,"MEAN_MOTION_DDOT":0},{"OBJECT_NAME":"COSMOS 2251 DEB","OBJECT_ID":"1993-036BBA","EPOCH":"2026-03-03T00:41:16.231776","MEAN_MOTION":14.19093887,"ECCENTRICITY":0.01847145,"INCLINATION":73.9545,"RA_OF_ASC_NODE":191.0672,"ARG_OF_PERICENTER":356.8091,"MEAN_ANOMALY":3.1857,"EPHEMERIS_TYPE":0,"CLASSIFICATION_TYPE":"U","NORAD_CAT_ID":36451,"ELEMENT_SET_NO":999,"REV_AT_EPOCH":85364,"BSTAR":0.00088602424,"MEAN_MOTION_DOT":2.169e-5,"MEAN_MOTION_DDOT":0},{"OBJECT_NAME":"COSMOS 2251 DEB","OBJECT_ID":"1993-036BBC","EPOCH":"2026-03-05T18:52:36.763968","MEAN_MOTION":14.53374648,"ECCENTRICITY":0.00719406,"INCLINATION":73.9273,"RA_OF_ASC_NODE":354.6041,"ARG_OF_PERICENTER":239.8798,"MEAN_ANOMALY":148.8545,"EPHEMERIS_TYPE":0,"CLASSIFICATION_TYPE":"U","NORAD_CAT_ID":36453,"ELEMENT_SET_NO":999,"REV_AT_EPOCH":85674,"BSTAR":0.0011505507,"MEAN_MOTION_DOT":4.925e-5,"MEAN_MOTION_DDOT":0},{"OBJECT_NAME":"COSMOS 2251 DEB","OBJECT_ID":"1993-036BBJ","EPOCH":"2026-02-26T03:21:02.988288","MEAN_MOTION":14.26981616,"ECCENTRICITY":0.01151542,"INCLINATION":74.0464,"RA_OF_ASC_NODE":223.5036,"ARG_OF_PERICENTER":301.5673,"MEAN_ANOMALY":57.4272,"EPHEMERIS_TYPE":0,"CLASSIFICATION_TYPE":"U","NORAD_CAT_ID":36459,"ELEMENT_SET_NO":999,"REV_AT_EPOCH":8957,"BSTAR":0.0012579512,"MEAN_MOTION_DOT":3.257e-5,"MEAN_MOTION_DDOT":0},{"OBJECT_NAME":"COSMOS 2251 DEB","OBJECT_ID":"1993-036BBV","EPOCH":"2026-02-27T18:16:57.594144","MEAN_MOTION":15.17732907,"ECCENTRICITY":0.00280345,"INCLINATION":73.8349,"RA_OF_ASC_NODE":92.9986,"ARG_OF_PERICENTER":278.5786,"MEAN_ANOMALY":81.2232,"EPHEMERIS_TYPE":0,"CLASSIFICATION_TYPE":"U","NORAD_CAT_ID":36470,"ELEMENT_SET_NO":999,"REV_AT_EPOCH":67258,"BSTAR":0.0034538195,"MEAN_MOTION_DOT":0.00071068,"MEAN_MOTION_DDOT":0},{"OBJECT_NAME":"COSMOS 2251 DEB","OBJECT_ID":"1993-036BCN","EPOCH":"2026-02-16T14:27:48.280896","MEAN_MOTION":14.30929428,"ECCENTRICITY":0.0082039,"INCLINATION":74.0163,"RA_OF_ASC_NODE":25.1656,"ARG_OF_PERICENTER":57.9736,"MEAN_ANOMALY":302.935,"EPHEMERIS_TYPE":0,"CLASSIFICATION_TYPE":"U","NORAD_CAT_ID":36528,"ELEMENT_SET_NO":999,"REV_AT_EPOCH":65369,"BSTAR":0.00053556,"MEAN_MOTION_DOT":1.435e-5,"MEAN_MOTION_DDOT":0},{"OBJECT_NAME":"COSMOS 2251 DEB","OBJECT_ID":"1993-036BCT","EPOCH":"2026-03-07T00:29:18.760128","MEAN_MOTION":14.50133889,"ECCENTRICITY":0.0046969,"INCLINATION":74.0122,"RA_OF_ASC_NODE":316.3257,"ARG_OF_PERICENTER":85.1304,"MEAN_ANOMALY":275.5217,"EPHEMERIS_TYPE":0,"CLASSIFICATION_TYPE":"U","NORAD_CAT_ID":36533,"ELEMENT_SET_NO":999,"REV_AT_EPOCH":85706,"BSTAR":0.00041467,"MEAN_MOTION_DOT":1.605e-5,"MEAN_MOTION_DDOT":0},{"OBJECT_NAME":"COSMOS 2251 DEB","OBJECT_ID":"1993-036BCZ","EPOCH":"2026-03-06T23:22:48.929952","MEAN_MOTION":14.59924194,"ECCENTRICITY":0.0026815,"INCLINATION":74.0206,"RA_OF_ASC_NODE":254.4083,"ARG_OF_PERICENTER":13.9063,"MEAN_ANOMALY":346.2835,"EPHEMERIS_TYPE":0,"CLASSIFICATION_TYPE":"U","NORAD_CAT_ID":36539,"ELEMENT_SET_NO":999,"REV_AT_EPOCH":85176,"BSTAR":0.00069231,"MEAN_MOTION_DOT":3.305e-5,"MEAN_MOTION_DDOT":0},{"OBJECT_NAME":"COSMOS 2251 DEB","OBJECT_ID":"1993-036BDA","EPOCH":"2026-03-06T06:16:26.874624","MEAN_MOTION":14.59545725,"ECCENTRICITY":0.00113114,"INCLINATION":74.0308,"RA_OF_ASC_NODE":21.3145,"ARG_OF_PERICENTER":73.492,"MEAN_ANOMALY":286.7487,"EPHEMERIS_TYPE":0,"CLASSIFICATION_TYPE":"U","NORAD_CAT_ID":36540,"ELEMENT_SET_NO":999,"REV_AT_EPOCH":87228,"BSTAR":0.0014511621,"MEAN_MOTION_DOT":6.879e-5,"MEAN_MOTION_DDOT":0}]
